{
  "type": "FeatureCollection",
  "features": [
    {
      "type": "Feature",
      "properties": {
        "norad_id": 66590,
        "name": "STARLINK-35429",
        "group": "last-30-days",
        "lat": 2.300185122661033,
        "lon": 135.97856161133265,
        "alt_km": 443.08401909484746,
        "timestamp": "2025-12-22T22:44:19.648875+00:00",
        "meta_object_name": "STARLINK-35429",
        "meta_object_id": "2025-270C",
        "meta_epoch": "2025-12-22T02:29:54.193344",
        "meta_mean_motion": 15.40715524,
        "meta_eccentricity": 0.00013972,
        "meta_inclination": 43.0006,
        "meta_ra_of_asc_node": 138.3695,
        "meta_arg_of_pericenter": 278.0769,
        "meta_mean_anomaly": 81.9929,
        "meta_ephemeris_type": 0,
        "meta_classification_type": "U",
        "meta_norad_cat_id": 66590,
        "meta_element_set_no": 999,
        "meta_rev_at_epoch": 590,
        "meta_bstar": 0.0010272237,
        "meta_mean_motion_dot": 0.0004287,
        "meta_mean_motion_ddot": 0,
        "tle_line1": "1 66590U 25270C   25356.10409946  .00042870  00000+0  10272-2 0  9990",
        "tle_line2": "2 66590  43.0006 138.3695 0001397 278.0769  81.9929 15.40715524  5901"
      },
      "geometry": {
        "type": "Point",
        "coordinates": [
          135.97856161133265,
          2.300185122661033
        ]
      }
    },
    {
      "type": "Feature",
      "properties": {
        "norad_id": 66591,
        "name": "STARLINK-36058",
        "group": "last-30-days",
        "lat": 42.978716302466424,
        "lon": -136.24239703878698,
        "alt_km": 438.08835332543003,
        "timestamp": "2025-12-22T22:44:19.648886+00:00",
        "meta_object_name": "STARLINK-36058",
        "meta_object_id": "2025-270D",
        "meta_epoch": "2025-12-22T14:00:01.999872",
        "meta_mean_motion": 15.40685666,
        "meta_eccentricity": 0.00015712,
        "meta_inclination": 42.9999,
        "meta_ra_of_asc_node": 135.3981,
        "meta_arg_of_pericenter": 304.8784,
        "meta_mean_anomaly": 283.6078,
        "meta_ephemeris_type": 0,
        "meta_classification_type": "U",
        "meta_norad_cat_id": 66591,
        "meta_element_set_no": 999,
        "meta_rev_at_epoch": 598,
        "meta_bstar": 0.00033639586,
        "meta_mean_motion_dot": 0.00013767,
        "meta_mean_motion_ddot": 0,
        "tle_line1": "1 66591U 25270D   25356.58335648  .00013767  00000+0  33640-3 0  9998",
        "tle_line2": "2 66591  42.9999 135.3981 0001571 304.8784 283.6078 15.40685666  5982"
      },
      "geometry": {
        "type": "Point",
        "coordinates": [
          -136.24239703878698,
          42.978716302466424
        ]
      }
    },
    {
      "type": "Feature",
      "properties": {
        "norad_id": 66592,
        "name": "STARLINK-36066",
        "group": "last-30-days",
        "lat": -29.678160612658772,
        "lon": -8.459032459692247,
        "alt_km": 444.8442661580739,
        "timestamp": "2025-12-22T22:44:19.648897+00:00",
        "meta_object_name": "STARLINK-36066",
        "meta_object_id": "2025-270E",
        "meta_epoch": "2025-12-22T03:05:22.945056",
        "meta_mean_motion": 15.40707786,
        "meta_eccentricity": 0.0003425,
        "meta_inclination": 43.0004,
        "meta_ra_of_asc_node": 138.5584,
        "meta_arg_of_pericenter": 263.6107,
        "meta_mean_anomaly": 96.436,
        "meta_ephemeris_type": 0,
        "meta_classification_type": "U",
        "meta_norad_cat_id": 66592,
        "meta_element_set_no": 999,
        "meta_rev_at_epoch": 569,
        "meta_bstar": 0.00070293192,
        "meta_mean_motion_dot": 0.00029183,
        "meta_mean_motion_ddot": 0,
        "tle_line1": "1 66592U 25270E   25356.12873779  .00029183  00000+0  70293-3 0  9995",
        "tle_line2": "2 66592  43.0004 138.5584 0003425 263.6107  96.4360 15.40707786  5697"
      },
      "geometry": {
        "type": "Point",
        "coordinates": [
          -8.459032459692247,
          -29.678160612658772
        ]
      }
    },
    {
      "type": "Feature",
      "properties": {
        "norad_id": 66593,
        "name": "STARLINK-36031",
        "group": "last-30-days",
        "lat": -29.548983704621623,
        "lon": 96.1505392727703,
        "alt_km": 445.70883667832186,
        "timestamp": "2025-12-22T22:44:19.648907+00:00",
        "meta_object_name": "STARLINK-36031",
        "meta_object_id": "2025-270F",
        "meta_epoch": "2025-12-22T02:42:48.560256",
        "meta_mean_motion": 15.40728409,
        "meta_eccentricity": 0.00011946,
        "meta_inclination": 42.9962,
        "meta_ra_of_asc_node": 138.4375,
        "meta_arg_of_pericenter": 279.7559,
        "meta_mean_anomaly": 80.3162,
        "meta_ephemeris_type": 0,
        "meta_classification_type": "U",
        "meta_norad_cat_id": 66593,
        "meta_element_set_no": 999,
        "meta_rev_at_epoch": 579,
        "meta_bstar": 0.0010474943,
        "meta_mean_motion_dot": 0.00043745,
        "meta_mean_motion_ddot": 0,
        "tle_line1": "1 66593U 25270F   25356.11306204  .00043745  00000+0  10475-2 0  9994",
        "tle_line2": "2 66593  42.9962 138.4375 0001194 279.7559  80.3162 15.40728409  5794"
      },
      "geometry": {
        "type": "Point",
        "coordinates": [
          96.1505392727703,
          -29.548983704621623
        ]
      }
    },
    {
      "type": "Feature",
      "properties": {
        "norad_id": 66594,
        "name": "STARLINK-36032",
        "group": "last-30-days",
        "lat": 32.97515154494179,
        "lon": 177.51642018603616,
        "alt_km": 439.503944271175,
        "timestamp": "2025-12-22T22:44:19.648918+00:00",
        "meta_object_name": "STARLINK-36032",
        "meta_object_id": "2025-270G",
        "meta_epoch": "2025-12-22T14:00:01.999872",
        "meta_mean_motion": 15.40670349,
        "meta_eccentricity": 0.00015131,
        "meta_inclination": 42.9999,
        "meta_ra_of_asc_node": 135.4889,
        "meta_arg_of_pericenter": 280.7465,
        "meta_mean_anomaly": 270.4441,
        "meta_ephemeris_type": 0,
        "meta_classification_type": "U",
        "meta_norad_cat_id": 66594,
        "meta_element_set_no": 999,
        "meta_rev_at_epoch": 571,
        "meta_bstar": 0.00039863118,
        "meta_mean_motion_dot": 0.00016368,
        "meta_mean_motion_ddot": 0,
        "tle_line1": "1 66594U 25270G   25356.58335648  .00016368  00000+0  39863-3 0  9994",
        "tle_line2": "2 66594  42.9999 135.4889 0001513 280.7465 270.4441 15.40670349  5718"
      },
      "geometry": {
        "type": "Point",
        "coordinates": [
          177.51642018603616,
          32.97515154494179
        ]
      }
    },
    {
      "type": "Feature",
      "properties": {
        "norad_id": 66595,
        "name": "STARLINK-35711",
        "group": "last-30-days",
        "lat": -17.872149043143963,
        "lon": -26.74667464220036,
        "alt_km": 418.7884416754023,
        "timestamp": "2025-12-22T22:44:19.648943+00:00",
        "meta_object_name": "STARLINK-35711",
        "meta_object_id": "2025-270H",
        "meta_epoch": "2025-12-20T03:22:00.602400",
        "meta_mean_motion": 15.5018184,
        "meta_eccentricity": 0.00034215,
        "meta_inclination": 42.999,
        "meta_ra_of_asc_node": 149.4265,
        "meta_arg_of_pericenter": 341.0071,
        "meta_mean_anomaly": 19.0661,
        "meta_ephemeris_type": 0,
        "meta_classification_type": "U",
        "meta_norad_cat_id": 66595,
        "meta_element_set_no": 999,
        "meta_rev_at_epoch": 560,
        "meta_bstar": 0.0012292638,
        "meta_mean_motion_dot": 0.00071426,
        "meta_mean_motion_ddot": 0,
        "tle_line1": "1 66595U 25270H   25354.14028475  .00071426  00000+0  12293-2 0  9995",
        "tle_line2": "2 66595  42.9990 149.4265 0003421 341.0071  19.0661 15.50181840  5600"
      },
      "geometry": {
        "type": "Point",
        "coordinates": [
          -26.74667464220036,
          -17.872149043143963
        ]
      }
    },
    {
      "type": "Feature",
      "properties": {
        "norad_id": 66596,
        "name": "STARLINK-35811",
        "group": "last-30-days",
        "lat": -14.7565561453849,
        "lon": -29.680938249815377,
        "alt_km": 444.3298026838229,
        "timestamp": "2025-12-22T22:44:19.648955+00:00",
        "meta_object_name": "STARLINK-35811",
        "meta_object_id": "2025-270J",
        "meta_epoch": "2025-12-21T17:51:42.369696",
        "meta_mean_motion": 15.40729459,
        "meta_eccentricity": 0.00045247,
        "meta_inclination": 43.0021,
        "meta_ra_of_asc_node": 140.8369,
        "meta_arg_of_pericenter": 268.1923,
        "meta_mean_anomaly": 91.8415,
        "meta_ephemeris_type": 0,
        "meta_classification_type": "U",
        "meta_norad_cat_id": 66596,
        "meta_element_set_no": 999,
        "meta_rev_at_epoch": 584,
        "meta_bstar": 0.00087175988,
        "meta_mean_motion_dot": 0.0003633,
        "meta_mean_motion_ddot": 0,
        "tle_line1": "1 66596U 25270J   25355.74424039  .00036330  00000+0  87176-3 0  9997",
        "tle_line2": "2 66596  43.0021 140.8369 0004524 268.1923  91.8415 15.40729459  5842"
      },
      "geometry": {
        "type": "Point",
        "coordinates": [
          -29.680938249815377,
          -14.7565561453849
        ]
      }
    }
  ]
}